CTC2_L_00564001-01
1 58145U 24750CO  26037.47798611  .00000000  00000+0  00000-0 0  9991
2 58145  99.3000   0.0000 0000000   0.0000   0.0000 13.72670174    15
CTC2_L_00564001-02
1 58146U 24281FG  26037.47798611  .00000000  00000+0  00000-0 0  9991
2 58146  99.3000   0.0000 0000000   0.0000  45.0000 13.72670174    15
CTC2_L_00564001-03
1 58147U 25086DC  26037.47798611  .00000000  00000+0  00000-0 0  9996
2 58147  99.3000   0.0000 0000000   0.0000  90.0000 13.72670174    16
CTC2_L_00564001-04
1 58148U 22195IK  26037.47798611  .00000000  00000+0  00000-0 0  9995
2 58148  99.3000   0.0000 0000000   0.0000 135.0000 13.72670174    17
CTC2_L_00564001-05
1 58149U 22200HN  26037.47798611  .00000000  00000+0  00000-0 0  9993
2 58149  99.3000   0.0000 0000000   0.0000 180.0000 13.72670174    18
CTC2_L_00564001-06
1 58150U 23219BF  26037.47798611  .00000000  00000+0  00000-0 0  9996
2 58150  99.3000   0.0000 0000000   0.0000 225.0000 13.72670174    10
CTC2_L_00564001-07
1 58151U 22037NC  26037.47798611  .00000000  00000+0  00000-0 0  9994
2 58151  99.3000   0.0000 0000000   0.0000 270.0000 13.72670174    11
CTC2_L_00564001-08
1 58152U 26716IA  26037.47798611  .00000000  00000+0  00000-0 0  9993
2 58152  99.3000   0.0000 0000000   0.0000 315.0000 13.72670174    12
CTC2_L_00564002-01
1 58153U 25846XC  26037.47798611  .00000000  00000+0  00000-0 0  9997
2 58153  99.3000  12.0000 0000000   0.0000   6.0000 13.72670174    13
CTC2_L_00564002-02
1 58154U 24109EQ  26037.47798611  .00000000  00000+0  00000-0 0  9999
2 58154  99.3000  12.0000 0000000   0.0000  51.0000 13.72670174    14
CTC2_L_00564002-03
1 58155U 24568FP  26037.47798611  .00000000  00000+0  00000-0 0  9999
2 58155  99.3000  12.0000 0000000   0.0000  96.0000 13.72670174    14
CTC2_L_00564002-04
1 58156U 24119XI  26037.47798611  .00000000  00000+0  00000-0 0  9992
2 58156  99.3000  12.0000 0000000   0.0000 141.0000 13.72670174    16
CTC2_L_00564002-05
1 58157U 22907RC  26037.47798611  .00000000  00000+0  00000-0 0  9996
2 58157  99.3000  12.0000 0000000   0.0000 186.0000 13.72670174    16
CTC2_L_00564002-06
1 58158U 25377BC  26037.47798611  .00000000  00000+0  00000-0 0  9991
2 58158  99.3000  12.0000 0000000   0.0000 231.0000 13.72670174    18
CTC2_L_00564002-07
1 58159U 25888GU  26037.47798611  .00000000  00000+0  00000-0 0  9999
2 58159  99.3000  12.0000 0000000   0.0000 276.0000 13.72670174    18
CTC2_L_00564002-08
1 58160U 24685WA  26037.47798611  .00000000  00000+0  00000-0 0  9995
2 58160  99.3000  12.0000 0000000   0.0000 321.0000 13.72670174    11
CTC2_L_00564003-01
1 58161U 23147A   26037.47798611  .00000000  00000+0  00000-0 0  9998
2 58161  99.3000  24.0000 0000000   0.0000  12.0000 13.72670174    12
CTC2_L_00564003-02
1 58162U 23988QY  26037.47798611  .00000000  00000+0  00000-0 0  9992
2 58162  99.3000  24.0000 0000000   0.0000  57.0000 13.72670174    12
CTC2_L_00564003-03
1 58163U 23865GN  26037.47798611  .00000000  00000+0  00000-0 0  9997
2 58163  99.3000  24.0000 0000000   0.0000 102.0000 13.72670174    14
CTC2_L_00564003-04
1 58164U 22234ZS  26037.47798611  .00000000  00000+0  00000-0 0  9997
2 58164  99.3000  24.0000 0000000   0.0000 147.0000 13.72670174    14
CTC2_L_00564003-05
1 58165U 22827JY  26037.47798611  .00000000  00000+0  00000-0 0  9996
2 58165  99.3000  24.0000 0000000   0.0000 192.0000 13.72670174    15
CTC2_L_00564003-06
1 58166U 22031MQ  26037.47798611  .00000000  00000+0  00000-0 0  9994
2 58166  99.3000  24.0000 0000000   0.0000 237.0000 13.72670174    16
CTC2_L_00564003-07
1 58167U 23110TS  26037.47798611  .00000000  00000+0  00000-0 0  9994
2 58167  99.3000  24.0000 0000000   0.0000 282.0000 13.72670174    17
CTC2_L_00564003-08
1 58168U 24560RX  26037.47798611  .00000000  00000+0  00000-0 0  9995
2 58168  99.3000  24.0000 0000000   0.0000 327.0000 13.72670174    18
CTC2_L_00564004-01
1 58169U 26982LT  26037.47798611  .00000000  00000+0  00000-0 0  9996
2 58169  99.3000  36.0000 0000000   0.0000  18.0000 13.72670174    19
CTC2_L_00564004-02
1 58170U 22602AP  26037.47798611  .00000000  00000+0  00000-0 0  9993
2 58170  99.3000  36.0000 0000000   0.0000  63.0000 13.72670174    11
CTC2_L_00564004-03
1 58171U 25541QQ  26037.47798611  .00000000  00000+0  00000-0 0  9999
2 58171  99.3000  36.0000 0000000   0.0000 108.0000 13.72670174    12
CTC2_L_00564004-04
1 58172U 25748UZ  26037.47798611  .00000000  00000+0  00000-0 0  9999
2 58172  99.3000  36.0000 0000000   0.0000 153.0000 13.72670174    13
CTC2_L_00564004-05
1 58173U 25308AN  26037.47798611  .00000000  00000+0  00000-0 0  9992
2 58173  99.3000  36.0000 0000000   0.0000 198.0000 13.72670174    13
CTC2_L_00564004-06
1 58174U 24025KV  26037.47798611  .00000000  00000+0  00000-0 0  9998
2 58174  99.3000  36.0000 0000000   0.0000 243.0000 13.72670174    15
CTC2_L_00564004-07
1 58175U 23939HZ  26037.47798611  .00000000  00000+0  00000-0 0  9992
2 58175  99.3000  36.0000 0000000   0.0000 288.0000 13.72670174    15
CTC2_L_00564004-08
1 58176U 25765CB  26037.47798611  .00000000  00000+0  00000-0 0  9992
2 58176  99.3000  36.0000 0000000   0.0000 333.0000 13.72670174    17
CTC2_L_00564005-01
1 58177U 25979ET  26037.47798611  .00000000  00000+0  00000-0 0  9990
2 58177  99.3000  48.0000 0000000   0.0000  24.0000 13.72670174    18
CTC2_L_00564005-02
1 58178U 23045DG  26037.47798611  .00000000  00000+0  00000-0 0  9993
2 58178  99.3000  48.0000 0000000   0.0000  69.0000 13.72670174    18
CTC2_L_00564005-03
1 58179U 24902SV  26037.47798611  .00000000  00000+0  00000-0 0  9997
2 58179  99.3000  48.0000 0000000   0.0000 114.0000 13.72670174    10
CTC2_L_00564005-04
1 58180U 23524AS  26037.47798611  .00000000  00000+0  00000-0 0  9998
2 58180  99.3000  48.0000 0000000   0.0000 159.0000 13.72670174    11
CTC2_L_00564005-05
1 58181U 23032YW  26037.47798611  .00000000  00000+0  00000-0 0  9993
2 58181  99.3000  48.0000 0000000   0.0000 204.0000 13.72670174    13
CTC2_L_00564005-06
1 58182U 22593HU  26037.47798611  .00000000  00000+0  00000-0 0  9995
2 58182  99.3000  48.0000 0000000   0.0000 249.0000 13.72670174    13
CTC2_L_00564005-07
1 58183U 24823EV  26037.47798611  .00000000  00000+0  00000-0 0  9994
2 58183  99.3000  48.0000 0000000   0.0000 294.0000 13.72670174    14
CTC2_L_00564005-08
1 58184U 26345FB  26037.47798611  .00000000  00000+0  00000-0 0  9996
2 58184  99.3000  48.0000 0000000   0.0000 339.0000 13.72670174    15
CTC2_L_00564006-01
1 58185U 25843VO  26037.47798611  .00000000  00000+0  00000-0 0  9999
2 58185  99.3000  60.0000 0000000   0.0000  30.0000 13.72670174    18
CTC2_L_00564006-02
1 58186U 25867GA  26037.47798611  .00000000  00000+0  00000-0 0  9996
2 58186  99.3000  60.0000 0000000   0.0000  75.0000 13.72670174    18
CTC2_L_00564006-03
1 58187U 24422BP  26037.47798611  .00000000  00000+0  00000-0 0  9993
2 58187  99.3000  60.0000 0000000   0.0000 120.0000 13.72670174    10
CTC2_L_00564006-04
1 58188U 26243PI  26037.47798611  .00000000  00000+0  00000-0 0  9997
2 58188  99.3000  60.0000 0000000   0.0000 165.0000 13.72670174    10
CTC2_L_00564006-05
1 58189U 25556FV  26037.47798611  .00000000  00000+0  00000-0 0  9994
2 58189  99.3000  60.0000 0000000   0.0000 210.0000 13.72670174    12
CTC2_L_00564006-06
1 58190U 23581JQ  26037.47798611  .00000000  00000+0  00000-0 0  9992
2 58190  99.3000  60.0000 0000000   0.0000 255.0000 13.72670174    13
CTC2_L_00564006-07
1 58191U 26456HX  26037.47798611  .00000000  00000+0  00000-0 0  9997
2 58191  99.3000  60.0000 0000000   0.0000 300.0000 13.72670174    15
CTC2_L_00564006-08
1 58192U 26774ZX  26037.47798611  .00000000  00000+0  00000-0 0  9991
2 58192  99.3000  60.0000 0000000   0.0000 345.0000 13.72670174    15
CTC2_L_00564007-01
1 58193U 23573LR  26037.47798611  .00000000  00000+0  00000-0 0  9996
2 58193  99.3000  72.0000 0000000   0.0000  36.0000 13.72670174    16
CTC2_L_00564007-02
1 58194U 26082ZU  26037.47798611  .00000000  00000+0  00000-0 0  9995
2 58194  99.3000  72.0000 0000000   0.0000  81.0000 13.72670174    17
CTC2_L_00564007-03
1 58195U 24917MH  26037.47798611  .00000000  00000+0  00000-0 0  9991
2 58195  99.3000  72.0000 0000000   0.0000 126.0000 13.72670174    18
CTC2_L_00564007-04
1 58196U 23380MM  26037.47798611  .00000000  00000+0  00000-0 0  9995
2 58196  99.3000  72.0000 0000000   0.0000 171.0000 13.72670174    19
CTC2_L_00564007-05
1 58197U 26893OT  26037.47798611  .00000000  00000+0  00000-0 0  9998
2 58197  99.3000  72.0000 0000000   0.0000 216.0000 13.72670174    10
CTC2_L_00564007-06
1 58198U 26450AE  26037.47798611  .00000000  00000+0  00000-0 0  9998
2 58198  99.3000  72.0000 0000000   0.0000 261.0000 13.72670174    11
CTC2_L_00564007-07
1 58199U 25847QU  26037.47798611  .00000000  00000+0  00000-0 0  9998
2 58199  99.3000  72.0000 0000000   0.0000 306.0000 13.72670174    12
CTC2_L_00564007-08
1 58200U 26112DK  26037.47798611  .00000000  00000+0  00000-0 0  9997
2 58200  99.3000  72.0000 0000000   0.0000 351.0000 13.72670174    15
CTC2_L_00564008-01
1 58201U 24050PH  26037.47798611  .00000000  00000+0  00000-0 0  9997
2 58201  99.3000  84.0000 0000000   0.0000  42.0000 13.72670174    16
CTC2_L_00564008-02
1 58202U 26683AS  26037.47798611  .00000000  00000+0  00000-0 0  9992
2 58202  99.3000  84.0000 0000000   0.0000  87.0000 13.72670174    16
CTC2_L_00564008-03
1 58203U 26934UM  26037.47798611  .00000000  00000+0  00000-0 0  9992
2 58203  99.3000  84.0000 0000000   0.0000 132.0000 13.72670174    18
CTC2_L_00564008-04
1 58204U 23971XZ  26037.47798611  .00000000  00000+0  00000-0 0  9991
2 58204  99.3000  84.0000 0000000   0.0000 177.0000 13.72670174    18
CTC2_L_00564008-05
1 58205U 25930KM  26037.47798611  .00000000  00000+0  00000-0 0  9999
2 58205  99.3000  84.0000 0000000   0.0000 222.0000 13.72670174    10
CTC2_L_00564008-06
1 58206U 26871KC  26037.47798611  .00000000  00000+0  00000-0 0  9995
2 58206  99.3000  84.0000 0000000   0.0000 267.0000 13.72670174    10
